GLOBALSTAR M094 [+]     
1 39074U 13005C   23282.41248714 -.00000084  00000+0  10902-3 0  9997
2 39074  51.9946 260.0154 0000582  47.8844 312.2072 12.62268339494508
GLOBALSTAR M096 [+]     
1 39075U 13005D   23283.37579977 -.00000071  00000+0  18350-3 0  9993
2 39075  52.0072 305.1167 0000468  42.9094 317.1809 12.62264705493876
GLOBALSTAR M078 [+]     
1 39076U 13005E   23283.42835774 -.00000138  00000+0 -19318-3 0  9990
2 39076  51.9901  30.2991 0000494 225.0330 135.0496 12.62261156492362
GLOBALSTAR M095 [+]     
1 39077U 13005F   23283.45511652 -.00000098  00000+0  32732-4 0  9990
2 39077  51.9823  27.7223 0000116 354.8196   5.2669 12.62269240492370
GLOBALSTAR M087 [+]     
1 52888U 22064A   23283.48663271 -.00000070  00000+0  11047-3 0  9993
2 52888  51.9780   2.5487 0010034  89.2249 270.9801 13.37554495 63979
